NUSAT-1 (FRESCO)        
1 41557U 16033B   22046.52394064  .00011495  00000+0  37805-3 0  9997
2 41557  97.3880 144.3558 0013638  92.0152  31.7384 15.31599297318705
BEESAT-4                
1 41619U 16040W   22045.69242816  .00008655  00000+0  32151-3 0  9991
2 41619  97.2372  99.7992 0009954 184.5197 175.5954 15.27740540301960
CAS-2T & KS-1Q          
1 41847U 16066G   22045.78167812  .00000747  00000+0  12292-3 0  9992
2 41847  98.5684 110.5115 0364112 216.5379 141.0464 14.38364465276717
NAYIF-1 (EO-88)         
1 42017U 17008BX  22045.74665179  .00009514  00000+0  32277-3 0  9990
2 42017  97.2867 113.9207 0004807 341.6410  18.4657 15.30720507278284
ZHUHAI-1 02 (CAS-4B)    
1 42759U 17034B   22046.39490034  .00003712  00000+0  23179-3 0  9995
2 42759  43.0176 284.9444 0009040 249.0973 279.9209 15.10912165257881
ZHUHAI-1 01 (CAS-4A)    
1 42761U 17034D   22046.55298596  .00003510  00000+0  21939-3 0  9993
2 42761  43.0179 282.9508 0009394 251.8688 183.6277 15.10996602257910
MAX VALIER SAT          
1 42778U 17036P   22045.69267697  .00004740  00000+0  19254-3 0  9998
2 42778  97.2249  91.0778 0012512  47.5916 312.6379 15.24970230258186
RADFXSAT (FOX-1B)       
1 43017U 17073E   22045.66574046  .00002934  00000+0  22874-3 0  9997
2 43017  97.6900 304.8693 0250894 229.3571 128.5586 14.80384066228948
FOX-1D (AO-92)          
1 43137U 18004AC  22045.77158348  .00006129  00000+0  23418-3 0  9995
2 43137  97.3825 122.2051 0009754  78.9476 281.2859 15.26939896227614
DIWATA-2B               
1 43678U 18084H   22046.59517943  .00001122  00000+0  11659-3 0  9996
2 43678  97.9494 178.6086 0009295 336.5075  23.5738 14.91924116179689
ES'HAIL 2               
1 43700U 18090A   22046.15892299  .00000146  00000+0  00000+0 0  9990
2 43700   0.0192 119.0486 0002400 231.3489 237.7218  1.00271687 12042
FOX-1CLIFF (AO-95)      
1 43770U 18099N   22046.46263240  .00001955  00000+0  18009-3 0  9999
2 43770  97.6367 115.9544 0013346 329.7497  30.2953 14.95777107174774
ITASAT 1                
1 43786U 18099AE  22045.73597686  .00002037  00000+0  18634-3 0  9995
2 43786  97.6394 116.0904 0013873 324.8045  35.2259 14.96009749174701
JY1SAT (JO-97)          
1 43803U 18099AX  22045.72079103  .00001860  00000+0  16915-3 0  9996
2 43803  97.6350 115.8132 0013950 322.9884  37.0374 14.96350857174717
UWE-4                   
1 43880U 18111E   22046.00791823  .00002158  00000+0  19038-3 0  9998
2 43880  97.6768 314.4724 0012359  18.1661 342.0000 14.97390396169372
NEXUS (FO-99)           
1 43937U 19003F   22045.66483521  .00007351  00000+0  27231-3 0  9990
2 43937  97.1481  83.9576 0020674 229.0825 130.8625 15.27725387171217
PSAT2 (NO-104)          
1 44354U 19036R   22045.82070066  .00051474  00000+0  58605-3 0  9998
2 44354  28.5257 299.0890 0280996  43.4848 318.7550 15.25517506145852
BRICSAT2 (NO-103)       
1 44355U 19036S   22046.44381222  .00161538  13800-6  93065-3 0  9998
2 44355  28.5211 192.0208 0147330 217.4644 141.5614 15.63359228146962
JAISAT-1                
1 44419U 19038F   22045.81675053  .00004570  00000+0  24595-3 0  9994
2 44419  97.6213  15.2735 0019897 190.9015 169.1789 15.15187833144477
DUCHIFAT-3              
1 44854U 19089C   22046.47141113  .00003222  00000+0  25927-3 0  9994
2 44854  36.9671 102.9496 0008926 308.8624  51.1321 15.00141353119609
CAS-6 (TO-108)          
1 44881U 19093C   22046.20731903  .00000478  00000+0  67501-4 0  9997
2 44881  97.9033 127.1397 0013928 220.1243 139.8950 14.81568220116678
RS-44 & BREEZE-KM R/B   
1 44909U 19096E   22046.14818932  .00000011  00000+0  73682-5 0  9993
2 44909  82.5235 311.5507 0216349 245.6325 112.2058 12.79711937 99900
ORBITAL FACTORY 2 (OF-2)
1 45113U 19071C   22046.42022680  .00013836  00000+0  35544-3 0  9994
2 45113  51.6412 296.9450 0011289  97.0252 263.2017 15.39520326114548
HUSKYSAT-1 (HO-107)     
1 45119U 19071J   22045.40663749  .00014714  00000+0  38130-3 0  9994
2 45119  51.6406 301.4111 0010880  89.8255 270.3976 15.39202203114387
BY70-2                  
1 45857U 20042B   22046.43774072  .00005553  00000+0  77277-3 0  9995
2 45857  97.9649 124.5760 0011930 146.8534 213.3457 14.78148497 87424
SALSAT                  
1 46495U 20068K   22045.82763806  .00001747  00000+0  13105-3 0  9998
2 46495  97.7198 347.2452 0015943 339.0775  20.9797 15.03892933 75755
BY70-3                  
1 46839U 20079N   22046.55478684  .00017992  00000+0  49878-3 0  9995
2 46839  97.2151 120.6511 0007985  60.6029  57.5775 15.36965079 71493
RADFXSAT-2 (AO-109)     
1 47311U 21002C   22046.45260478  .00004506  00000+0  19938-3 0  9998
2 47311  60.6860 100.7232 0021946 177.9438 182.1744 15.23190414 59876
UVSQ-SAT                
1 47438U 21006AB  22046.41087803  .00003280  00000+0  18315-3 0  9993
2 47438  97.4559 107.9634 0011843 345.6487  14.4407 15.14171390 58804
DIY-1 (ARDUIQUBE)       
1 47963U 21022AH  22045.66820996  .00009557  00000+0  59546-3 0  9992
2 47963  97.5447 308.7603 0017743 190.6612 169.4244 15.09643374 48409
XW-3 (CAS-9)            
1 50466U 21131B   22046.44492175  .00000089  00000+0  43931-4 0  9999
2 50466  98.5919 123.7138 0005532 141.6609 218.4976 14.38442409  7374
